{
  "links" : {
    "next" : "https://api.nasa.gov/neo/rest/v1/feed?start_date=1996-10-09&end_date=1996-10-09&detailed=true&api_key=t0TVs3DtDT2H8Oy2Zy8m2eVrNsAVKAexjcZXUckd",
    "prev" : "https://api.nasa.gov/neo/rest/v1/feed?start_date=1996-10-07&end_date=1996-10-07&detailed=true&api_key=t0TVs3DtDT2H8Oy2Zy8m2eVrNsAVKAexjcZXUckd",
    "self" : "https://api.nasa.gov/neo/rest/v1/feed?start_date=1996-10-08&end_date=1996-10-08&detailed=true&api_key=t0TVs3DtDT2H8Oy2Zy8m2eVrNsAVKAexjcZXUckd"
  },
  "element_count" : 5,
  "near_earth_objects" : {
    "1996-10-08" : [ {
      "links" : {
        "self" : "https://api.nasa.gov/neo/rest/v1/neo/3729840?api_key=t0TVs3DtDT2H8Oy2Zy8m2eVrNsAVKAexjcZXUckd"
      },
      "neo_reference_id" : "3729840",
      "name" : "(2015 TA145)",
      "nasa_jpl_url" : "http://ssd.jpl.nasa.gov/sbdb.cgi?sstr=3729840",
      "absolute_magnitude_h" : 21.5,
      "estimated_diameter" : {
        "kilometers" : {
          "estimated_diameter_min" : 0.1332155667,
          "estimated_diameter_max" : 0.2978790628
        },
        "meters" : {
          "estimated_diameter_min" : 133.2155666981,
          "estimated_diameter_max" : 297.8790627982
        },
        "miles" : {
          "estimated_diameter_min" : 0.0827762899,
          "estimated_diameter_max" : 0.1850934111
        },
        "feet" : {
          "estimated_diameter_min" : 437.0589598459,
          "estimated_diameter_max" : 977.2935443908
        }
      },
      "is_potentially_hazardous_asteroid" : false,
      "close_approach_data" : [ {
        "close_approach_date" : "1996-10-08",
        "epoch_date_close_approach" : 844758000000,
        "relative_velocity" : {
          "kilometers_per_second" : "3.7966557833",
          "kilometers_per_hour" : "13667.960819822",
          "miles_per_hour" : "8492.7393216278"
        },
        "miss_distance" : {
          "astronomical" : "0.3903024285",
          "lunar" : "151.8276367188",
          "kilometers" : "58388412",
          "miles" : "36280876"
        },
        "orbiting_body" : "Earth"
      } ],
      "orbital_data" : {
        "orbit_id" : "15",
        "orbit_determination_date" : "2017-04-06 08:31:26",
        "orbit_uncertainty" : "4",
        "minimum_orbit_intersection" : ".239855",
        "jupiter_tisserand_invariant" : "4.646",
        "epoch_osculation" : "2458000.5",
        "eccentricity" : ".1380916525727645",
        "semi_major_axis" : "1.439956494904794",
        "inclination" : "7.804912590569803",
        "ascending_node_longitude" : "90.27375537791602",
        "orbital_period" : "631.1353175588878",
        "perihelion_distance" : "1.241110522890505",
        "perihelion_argument" : "221.2258995416024",
        "aphelion_distance" : "1.638802466919082",
        "perihelion_time" : "2457843.472658936919",
        "mean_anomaly" : "89.56849856122142",
        "mean_motion" : ".5704006573303677",
        "equinox" : "J2000"
      }
    }, {
      "links" : {
        "self" : "https://api.nasa.gov/neo/rest/v1/neo/3767934?api_key=t0TVs3DtDT2H8Oy2Zy8m2eVrNsAVKAexjcZXUckd"
      },
      "neo_reference_id" : "3767934",
      "name" : "(2017 BV93)",
      "nasa_jpl_url" : "http://ssd.jpl.nasa.gov/sbdb.cgi?sstr=3767934",
      "absolute_magnitude_h" : 24.9,
      "estimated_diameter" : {
        "kilometers" : {
          "estimated_diameter_min" : 0.0278326768,
          "estimated_diameter_max" : 0.0622357573
        },
        "meters" : {
          "estimated_diameter_min" : 27.8326768072,
          "estimated_diameter_max" : 62.2357573367
        },
        "miles" : {
          "estimated_diameter_min" : 0.0172944182,
          "estimated_diameter_max" : 0.0386714948
        },
        "feet" : {
          "estimated_diameter_min" : 91.3145593761,
          "estimated_diameter_max" : 204.1855621004
        }
      },
      "is_potentially_hazardous_asteroid" : false,
      "close_approach_data" : [ {
        "close_approach_date" : "1996-10-08",
        "epoch_date_close_approach" : 844758000000,
        "relative_velocity" : {
          "kilometers_per_second" : "10.422149823",
          "kilometers_per_hour" : "37519.7393629436",
          "miles_per_hour" : "23313.306939158"
        },
        "miss_distance" : {
          "astronomical" : "0.2321366635",
          "lunar" : "90.3011627197",
          "kilometers" : "34727152",
          "miles" : "21578452"
        },
        "orbiting_body" : "Earth"
      } ],
      "orbital_data" : {
        "orbit_id" : "6",
        "orbit_determination_date" : "2017-04-06 08:20:25",
        "orbit_uncertainty" : "6",
        "minimum_orbit_intersection" : ".0420615",
        "jupiter_tisserand_invariant" : "6.246",
        "epoch_osculation" : "2458000.5",
        "eccentricity" : ".1154436097459024",
        "semi_major_axis" : ".9648489897048457",
        "inclination" : "4.606094916096338",
        "ascending_node_longitude" : "112.269154432338",
        "orbital_period" : "346.1684205352473",
        "perihelion_distance" : ".8534633394736313",
        "perihelion_argument" : "144.7928664123593",
        "aphelion_distance" : "1.07623463993606",
        "perihelion_time" : "2457894.197332693691",
        "mean_anomaly" : "110.5501194219268",
        "mean_motion" : "1.039956213924327",
        "equinox" : "J2000"
      }
    } ]
  }
}